HELIOS 1B               
1 25977U 99064A   26100.32417090  .00001619  00000+0  18356-3 0  9995
2 25977  98.1662   3.4932 0001148  38.0099 322.1197 14.87828580689962
TERRA                   
1 25994U 99068A   26100.50686875  .00000373  00000+0  85015-4 0  9990
2 25994  97.9529 152.7154 0003657  86.8546  49.2633 14.61050439399725
SL-16 R/B               
1 26070U 00006B   26100.52293293 -.00000191  00000+0 -72858-4 0  9991
2 26070  71.0046  30.8999 0014891 139.5190 220.7044 14.15830943353068
TITAN 4B R/B            
1 26474U 00047B   26100.56345784  .00002814  00000+0  17852-3 0  9995
2 26474  67.9891 310.8648 0041058 358.5282   1.5739 15.09849901397725
ENVISAT                 
1 27386U 02009A   26100.46673124  .00000124  00000+0  54145-4 0  9998
2 27386  98.3776  53.3180 0001166  83.0330  27.5868 14.39048726263741
IDEFIX & ARIANE 42P R/B 
1 27422U 02021B   26100.44902813  .00000268  00000+0  11823-3 0  9995
2 27422  98.5903  38.6829 0012990  93.3208 266.9461 14.31049156248568
AQUA                    
1 27424U 02022A   26100.51499027  .00000877  00000+0  18457-3 0  9990
2 27424  98.4225  68.4729 0001644 111.4080 342.3699 14.62053717273382
CZ-4B R/B               
1 27432U 02024C   26100.49127638  .00000037  00000+0  42048-4 0  9996
2 27432  98.8773 153.7277 0049103 293.1466 194.3811 14.14553623233731
MIDORI II (ADEOS-II)    
1 27597U 02056A   26100.51557963  .00000300  00000+0  13575-3 0  9999
2 27597  98.7820  59.2245 0000107  58.6176 301.5016 14.29310942214844
H-2A R/B                
1 27601U 02056E   26100.47062198  .00000344  00000+0  13477-3 0  9990
2 27601  98.3254  59.6372 0071371  67.2874  47.9416 14.33784931218661
CZ-4B R/B               
1 28059U 03049C   26100.42906878  .00000367  00000+0  95606-4 0  9998
2 28059  98.6899  96.5855 0048962 133.9168 226.6085 14.55050314191214
CZ-2C R/B               
1 28222U 04012C   26100.16562463  .00060625  00000+0  53037-3 0  9994
2 28222  97.7154 168.5248 0013908 188.9381 171.1634 15.68606440209200
SL-16 R/B               
1 28353U 04021B   26100.41910579  .00000197  00000+0  12729-3 0  9993
2 28353  71.0012 165.9088 0005908 328.8605  31.2166 14.14604136127329
CZ-4B R/B               
1 28415U 04035C   26100.05372980  .00007154  00000+0  24827-3 0  9997
2 28415  97.3450 133.9235 0030729 214.4233 145.5018 15.29637936184701
CZ-2C R/B               
1 28480U 04046B   26100.45931243  .00000171  00000+0  78222-4 0  9999
2 28480  98.1973  13.4634 0140509  61.1694 300.3511 14.27005539113035
ARIANE 5 R/B            
1 28499U 04049H   26100.22786532  .00000946  00000+0  11077-3 0  9990
2 28499  98.2674 269.8760 0082880 248.5582 110.6777 14.85330982150477
CZ-2D R/B               
1 28738U 05024B   26100.29970094  .00045669  00000+0  49825-3 0  9998
2 28738  97.3564 116.6723 0002315 231.2269 128.8783 15.63249190144710
