[{"OBJECT_NAME":"HELIOS 1B","OBJECT_ID":"1999-064A","EPOCH":"2026-04-10T07:46:48.365760","MEAN_MOTION":14.8782858,"ECCENTRICITY":0.0001148,"INCLINATION":98.1662,"RA_OF_ASC_NODE":3.4932,"ARG_OF_PERICENTER":38.0099,"MEAN_ANOMALY":322.1197,"EPHEMERIS_TYPE":0,"CLASSIFICATION_TYPE":"U","NORAD_CAT_ID":25977,"ELEMENT_SET_NO":999,"REV_AT_EPOCH":68996,"BSTAR":0.00018356,"MEAN_MOTION_DOT":1.619e-5,"MEAN_MOTION_DDOT":0},{"OBJECT_NAME":"TERRA","OBJECT_ID":"1999-068A","EPOCH":"2026-04-10T12:09:53.460000","MEAN_MOTION":14.61050439,"ECCENTRICITY":0.0003657,"INCLINATION":97.9529,"RA_OF_ASC_NODE":152.7154,"ARG_OF_PERICENTER":86.8546,"MEAN_ANOMALY":49.2633,"EPHEMERIS_TYPE":0,"CLASSIFICATION_TYPE":"U","NORAD_CAT_ID":25994,"ELEMENT_SET_NO":999,"REV_AT_EPOCH":39972,"BSTAR":8.5015e-5,"MEAN_MOTION_DOT":3.73e-6,"MEAN_MOTION_DDOT":0},{"OBJECT_NAME":"SL-16 R/B","OBJECT_ID":"2000-006B","EPOCH":"2026-04-10T12:33:01.405152","MEAN_MOTION":14.15830943,"ECCENTRICITY":0.0014891,"INCLINATION":71.0046,"RA_OF_ASC_NODE":30.8999,"ARG_OF_PERICENTER":139.519,"MEAN_ANOMALY":220.7044,"EPHEMERIS_TYPE":0,"CLASSIFICATION_TYPE":"U","NORAD_CAT_ID":26070,"ELEMENT_SET_NO":999,"REV_AT_EPOCH":35306,"BSTAR":-7.2858e-5,"MEAN_MOTION_DOT":-1.91e-6,"MEAN_MOTION_DDOT":0},{"OBJECT_NAME":"TITAN 4B R/B","OBJECT_ID":"2000-047B","EPOCH":"2026-04-10T13:31:22.757376","MEAN_MOTION":15.09849901,"ECCENTRICITY":0.0041058,"INCLINATION":67.9891,"RA_OF_ASC_NODE":310.8648,"ARG_OF_PERICENTER":358.5282,"MEAN_ANOMALY":1.5739,"EPHEMERIS_TYPE":0,"CLASSIFICATION_TYPE":"U","NORAD_CAT_ID":26474,"ELEMENT_SET_NO":999,"REV_AT_EPOCH":39772,"BSTAR":0.00017852,"MEAN_MOTION_DOT":2.814e-5,"MEAN_MOTION_DDOT":0},{"OBJECT_NAME":"ENVISAT","OBJECT_ID":"2002-009A","EPOCH":"2026-04-10T11:12:05.579136","MEAN_MOTION":14.39048726,"ECCENTRICITY":0.0001166,"INCLINATION":98.3776,"RA_OF_ASC_NODE":53.318,"ARG_OF_PERICENTER":83.033,"MEAN_ANOMALY":27.5868,"EPHEMERIS_TYPE":0,"CLASSIFICATION_TYPE":"U","NORAD_CAT_ID":27386,"ELEMENT_SET_NO":999,"REV_AT_EPOCH":26374,"BSTAR":5.4145e-5,"MEAN_MOTION_DOT":1.24e-6,"MEAN_MOTION_DDOT":0},{"OBJECT_NAME":"IDEFIX & ARIANE 42P R/B","OBJECT_ID":"2002-021B","EPOCH":"2026-04-10T10:46:36.030432","MEAN_MOTION":14.31049156,"ECCENTRICITY":0.001299,"INCLINATION":98.5903,"RA_OF_ASC_NODE":38.6829,"ARG_OF_PERICENTER":93.3208,"MEAN_ANOMALY":266.9461,"EPHEMERIS_TYPE":0,"CLASSIFICATION_TYPE":"U","NORAD_CAT_ID":27422,"ELEMENT_SET_NO":999,"REV_AT_EPOCH":24856,"BSTAR":0.00011823,"MEAN_MOTION_DOT":2.68e-6,"MEAN_MOTION_DDOT":0},{"OBJECT_NAME":"AQUA","OBJECT_ID":"2002-022A","EPOCH":"2026-04-10T12:21:35.159328","MEAN_MOTION":14.62053717,"ECCENTRICITY":0.0001644,"INCLINATION":98.4225,"RA_OF_ASC_NODE":68.4729,"ARG_OF_PERICENTER":111.408,"MEAN_ANOMALY":342.3699,"EPHEMERIS_TYPE":0,"CLASSIFICATION_TYPE":"U","NORAD_CAT_ID":27424,"ELEMENT_SET_NO":999,"REV_AT_EPOCH":27338,"BSTAR":0.00018457,"MEAN_MOTION_DOT":8.77e-6,"MEAN_MOTION_DDOT":0},{"OBJECT_NAME":"CZ-4B R/B","OBJECT_ID":"2002-024C","EPOCH":"2026-04-10T11:47:26.279232","MEAN_MOTION":14.14553623,"ECCENTRICITY":0.0049103,"INCLINATION":98.8773,"RA_OF_ASC_NODE":153.7277,"ARG_OF_PERICENTER":293.1466,"MEAN_ANOMALY":194.3811,"EPHEMERIS_TYPE":0,"CLASSIFICATION_TYPE":"U","NORAD_CAT_ID":27432,"ELEMENT_SET_NO":999,"REV_AT_EPOCH":23373,"BSTAR":4.2048e-5,"MEAN_MOTION_DOT":3.7e-7,"MEAN_MOTION_DDOT":0},{"OBJECT_NAME":"MIDORI II (ADEOS-II)","OBJECT_ID":"2002-056A","EPOCH":"2026-04-10T12:22:26.080032","MEAN_MOTION":14.29310942,"ECCENTRICITY":1.07e-5,"INCLINATION":98.782,"RA_OF_ASC_NODE":59.2245,"ARG_OF_PERICENTER":58.6176,"MEAN_ANOMALY":301.5016,"EPHEMERIS_TYPE":0,"CLASSIFICATION_TYPE":"U","NORAD_CAT_ID":27597,"ELEMENT_SET_NO":999,"REV_AT_EPOCH":21484,"BSTAR":0.00013575,"MEAN_MOTION_DOT":3.0e-6,"MEAN_MOTION_DDOT":0},{"OBJECT_NAME":"H-2A R/B","OBJECT_ID":"2002-056E","EPOCH":"2026-04-10T11:17:41.739072","MEAN_MOTION":14.33784931,"ECCENTRICITY":0.0071371,"INCLINATION":98.3254,"RA_OF_ASC_NODE":59.6372,"ARG_OF_PERICENTER":67.2874,"MEAN_ANOMALY":47.9416,"EPHEMERIS_TYPE":0,"CLASSIFICATION_TYPE":"U","NORAD_CAT_ID":27601,"ELEMENT_SET_NO":999,"REV_AT_EPOCH":21866,"BSTAR":0.00013477,"MEAN_MOTION_DOT":3.44e-6,"MEAN_MOTION_DDOT":0},{"OBJECT_NAME":"CZ-4B R/B","OBJECT_ID":"2003-049C","EPOCH":"2026-04-10T10:17:51.542592","MEAN_MOTION":14.55050314,"ECCENTRICITY":0.0048962,"INCLINATION":98.6899,"RA_OF_ASC_NODE":96.5855,"ARG_OF_PERICENTER":133.9168,"MEAN_ANOMALY":226.6085,"EPHEMERIS_TYPE":0,"CLASSIFICATION_TYPE":"U","NORAD_CAT_ID":28059,"ELEMENT_SET_NO":999,"REV_AT_EPOCH":19121,"BSTAR":9.5606e-5,"MEAN_MOTION_DOT":3.67e-6,"MEAN_MOTION_DDOT":0},{"OBJECT_NAME":"CZ-2C R/B","OBJECT_ID":"2004-012C","EPOCH":"2026-04-10T03:58:29.968032","MEAN_MOTION":15.6860644,"ECCENTRICITY":0.0013908,"INCLINATION":97.7154,"RA_OF_ASC_NODE":168.5248,"ARG_OF_PERICENTER":188.9381,"MEAN_ANOMALY":171.1634,"EPHEMERIS_TYPE":0,"CLASSIFICATION_TYPE":"U","NORAD_CAT_ID":28222,"ELEMENT_SET_NO":999,"REV_AT_EPOCH":20920,"BSTAR":0.00053037266,"MEAN_MOTION_DOT":0.00060625,"MEAN_MOTION_DDOT":0},{"OBJECT_NAME":"SL-16 R/B","OBJECT_ID":"2004-021B","EPOCH":"2026-04-10T10:03:30.740256","MEAN_MOTION":14.14604136,"ECCENTRICITY":0.0005908,"INCLINATION":71.0012,"RA_OF_ASC_NODE":165.9088,"ARG_OF_PERICENTER":328.8605,"MEAN_ANOMALY":31.2166,"EPHEMERIS_TYPE":0,"CLASSIFICATION_TYPE":"U","NORAD_CAT_ID":28353,"ELEMENT_SET_NO":999,"REV_AT_EPOCH":12732,"BSTAR":0.00012729,"MEAN_MOTION_DOT":1.97e-6,"MEAN_MOTION_DDOT":0},{"OBJECT_NAME":"CZ-4B R/B","OBJECT_ID":"2004-035C","EPOCH":"2026-04-10T01:17:22.254720","MEAN_MOTION":15.29637936,"ECCENTRICITY":0.00307295,"INCLINATION":97.345,"RA_OF_ASC_NODE":133.9235,"ARG_OF_PERICENTER":214.4233,"MEAN_ANOMALY":145.5018,"EPHEMERIS_TYPE":0,"CLASSIFICATION_TYPE":"U","NORAD_CAT_ID":28415,"ELEMENT_SET_NO":999,"REV_AT_EPOCH":18470,"BSTAR":0.00024826618,"MEAN_MOTION_DOT":7.154e-5,"MEAN_MOTION_DDOT":0},{"OBJECT_NAME":"CZ-2C R/B","OBJECT_ID":"2004-046B","EPOCH":"2026-04-10T11:01:24.593952","MEAN_MOTION":14.27005539,"ECCENTRICITY":0.0140509,"INCLINATION":98.1973,"RA_OF_ASC_NODE":13.4634,"ARG_OF_PERICENTER":61.1694,"MEAN_ANOMALY":300.3511,"EPHEMERIS_TYPE":0,"CLASSIFICATION_TYPE":"U","NORAD_CAT_ID":28480,"ELEMENT_SET_NO":999,"REV_AT_EPOCH":11303,"BSTAR":7.8222e-5,"MEAN_MOTION_DOT":1.71e-6,"MEAN_MOTION_DDOT":0},{"OBJECT_NAME":"ARIANE 5 R/B","OBJECT_ID":"2004-049H","EPOCH":"2026-04-10T05:28:07.563648","MEAN_MOTION":14.85330982,"ECCENTRICITY":0.00828802,"INCLINATION":98.2674,"RA_OF_ASC_NODE":269.876,"ARG_OF_PERICENTER":248.5582,"MEAN_ANOMALY":110.6777,"EPHEMERIS_TYPE":0,"CLASSIFICATION_TYPE":"U","NORAD_CAT_ID":28499,"ELEMENT_SET_NO":999,"REV_AT_EPOCH":15047,"BSTAR":0.0001107689,"MEAN_MOTION_DOT":9.46e-6,"MEAN_MOTION_DDOT":0},{"OBJECT_NAME":"CZ-2D R/B","OBJECT_ID":"2005-024B","EPOCH":"2026-04-10T07:11:34.161216","MEAN_MOTION":15.6324919,"ECCENTRICITY":0.00023158,"INCLINATION":97.3564,"RA_OF_ASC_NODE":116.6723,"ARG_OF_PERICENTER":231.2269,"MEAN_ANOMALY":128.8783,"EPHEMERIS_TYPE":0,"CLASSIFICATION_TYPE":"U","NORAD_CAT_ID":28738,"ELEMENT_SET_NO":999,"REV_AT_EPOCH":14471,"BSTAR":0.00049824982,"MEAN_MOTION_DOT":0.00045669,"MEAN_MOTION_DDOT":0}]
